QIANFAN-105             
1 66047U 25233Q   26005.27382789  .00000251  00000+0  19104-3 0  9992
2 66047  88.9941  59.5699 0014227 335.4633  24.5861 13.90526023 11267
QIANFAN-106             
1 66048U 25233R   26005.26832790  .00000136  00000+0  17168-3 0  9994
2 66048  88.9926  59.6906 0013959 333.0059  27.0368 13.57814038 11191
QIANFAN-107             
1 66049U 25233S   26005.27361439  .00000145  00000+0  18485-3 0  9996
2 66049  88.9940  59.6958 0013705 337.6998  22.3560 13.57810844 11199
QIANFAN-108             
1 66050U 25233T   26005.25940188  .00000052  00000+0  58695-4 0  9995
2 66050  88.9934  59.6923 0013592 337.9906  22.0662 13.54394786 11191
